GLOBALSTAR M092 [+]     
1 38043U 11080D   17345.91867765 -.00000086  00000-0  98349-4 0  9999
2 38043  52.0057 169.0795 0001350 100.3923   6.6640 12.62265663275558
